H1 CPF 01  gfz 2021 03 02 13  5612 tandemx   
H2 1003001  6202 36605    2021 03 02 12 59 42 2021 03 07 00 00 42   120 1 1  0 0 0
H9
10 0 59276  26622.000000  0    6448670.369  -2425492.970    -13077.325
10 0 59276  26742.000000  0    6327833.529  -2569877.561   -915566.910
10 0 59276  26862.000000  0    6094390.505  -2666284.854  -1801955.574
10 0 59276  26982.000000  0    5753372.422  -2711141.490  -2656680.072
10 0 59276  27102.000000  0    5311747.018  -2701886.986  -3464764.108
10 0 59276  27222.000000  0    4778267.840  -2637046.725  -4212082.820
10 0 59276  27342.000000  0    4163291.593  -2516282.595  -4885608.939
10 0 59276  27462.000000  0    3478566.591  -2340419.572  -5473635.546
10 0 59276  27582.000000  0    2736999.752  -2111448.016  -5965970.029
10 0 59276  27702.000000  0    1952409.882  -1832503.166  -6354099.992
10 0 59276  27822.000000  0    1139268.417  -1507821.604  -6631330.959
10 0 59276  27942.000000  0     312432.871  -1142675.373  -6792890.550
10 0 59276  28062.000000  0    -513120.454   -743286.644  -6836001.370
10 0 59276  28182.000000  0   -1322561.376   -316723.477  -6759923.029
10 0 59276  28302.000000  0   -2101466.208    129222.393  -6565963.451
10 0 59276  28422.000000  0   -2836068.635    586174.097  -6257457.846
10 0 59276  28542.000000  0   -3513497.712   1045322.184  -5839717.898
10 0 59276  28662.000000  0   -4122002.074   1497589.734  -5319950.822
10 0 59276  28782.000000  0   -4651156.563   1933807.486  -4707146.786
10 0 59276  28902.000000  0   -5092046.908   2344897.833  -4011934.865
10 0 59276  29022.000000  0   -5437427.655   2722061.538  -3246408.008
10 0 59276  29142.000000  0   -5681851.107   3056964.115  -2423920.883
10 0 59276  29262.000000  0   -5821764.287   3341918.693  -1558861.385
10 0 59276  29382.000000  0   -5855569.380   3570060.386   -666398.819
10 0 59276  29502.000000  0   -5783645.430   3735507.123    237785.725
10 0 59276  29622.000000  0   -5608331.339   3833502.929   1137782.357
10 0 59276  29742.000000  0   -5333866.981   3860538.590   2017741.950
10 0 59276  29862.000000  0   -4966295.541   3814447.329   2862163.860
10 0 59276  29982.000000  0   -4513331.443   3694473.363   3656176.711
10 0 59276  30102.000000  0   -3984194.765   3501310.819   4385807.019
10 0 59276  30222.000000  0   -3389418.210   3237112.064   5038227.777
10 0 59276  30342.000000  0   -2740631.437   2905467.548   5601984.701
10 0 59276  30462.000000  0   -2050326.906   2511355.614   6067194.825
10 0 59276  30582.000000  0   -1331613.976   2061064.580   6425715.346
10 0 59276  30702.000000  0    -597965.704   1562088.679   6671278.795
10 0 59276  30822.000000  0     137033.752   1023000.985   6799596.001
10 0 59276  30942.000000  0     859940.452    453304.784   6808426.630
10 0 59276  31062.000000  0    1557695.657   -136733.686   6697615.466
10 0 59276  31182.000000  0    2217860.704   -736269.467   6469095.631
10 0 59276  31302.000000  0    2828838.501  -1334077.755   6126857.496
10 0 59276  31422.000000  0    3380079.153  -1918763.263   5676884.210
10 0 59276  31542.000000  0    3862265.810  -2478978.073   5127052.444
10 0 59276  31662.000000  0    4267476.581  -3003642.667   4487000.220
10 0 59276  31782.000000  0    4589320.292  -3482167.929   3767963.428
10 0 59276  31902.000000  0    4823043.365  -3904672.562   2982581.629
10 0 59276  32022.000000  0    4965605.239  -4262190.479   2144675.480
10 0 59276  32142.000000  0    5015718.370  -4546862.818   1268999.875
10 0 59276  32262.000000  0    4973852.783  -4752110.651    370978.759
10 0 59276  32382.000000  0    4842205.062  -4872784.019   -533574.015
10 0 59276  32502.000000  0    4624632.402  -4905282.316  -1428741.921
10 0 59276  32622.000000  0    4326552.908  -4847643.139  -2298794.814
10 0 59276  32742.000000  0    3954815.093  -4699597.755  -3128472.277
10 0 59276  32862.000000  0    3517540.122  -4462592.002  -3903255.513
10 0 59276  32982.000000  0    3023942.108  -4139772.918  -4609622.320
10 0 59276  33102.000000  0    2484130.053  -3735941.168  -5235280.376
10 0 59276  33222.000000  0    1908897.051  -3257471.888  -5769373.007
10 0 59276  33342.000000  0    1309503.812  -2712208.123  -6202656.993
10 0 59276  33462.000000  0     697458.498  -2109328.150  -6527652.639
10 0 59276  33582.000000  0      84297.128  -1459187.425  -6738762.437
10 0 59276  33702.000000  0    -518630.019   -773139.841  -6832356.824
10 0 59276  33822.000000  0   -1100362.823    -63341.975  -6806828.943
10 0 59276  33942.000000  0   -1650525.793    657457.274  -6662618.675
10 0 59276  34062.000000  0   -2159508.779   1376139.562  -6402205.551
10 0 59276  34182.000000  0   -2618630.947   2079449.840  -6030070.781
10 0 59276  34302.000000  0   -3020287.655   2754235.339  -5552629.191
10 0 59276  34422.000000  0   -3358077.557   3387689.255  -4978130.251
10 0 59276  34542.000000  0   -3626908.678   3967594.302  -4316527.328
10 0 59276  34662.000000  0   -3823079.641   4482561.237  -3579314.856
10 0 59276  34782.000000  0   -3944332.976   4922256.669  -2779336.590
10 0 59276  34902.000000  0   -3989881.391   5277616.096  -1930568.476
10 0 59276  35022.000000  0   -3960406.239   5541037.657  -1047877.429
10 0 59276  35142.000000  0   -3858025.891   5706551.701   -146758.630
10 0 59276  35262.000000  0   -3686233.967   5769957.919    756942.131
10 0 59276  35382.000000  0   -3449810.367   5728929.212   1647314.976
10 0 59276  35502.000000  0   -3154704.550   5583078.564   2508676.703
10 0 59276  35622.000000  0   -2807894.064   5333983.994   3325856.819
10 0 59276  35742.000000  0   -2417224.233   4985173.630   4084470.664
10 0 59276  35862.000000  0   -1991232.787   4542072.677   4771176.535
10 0 59276  35982.000000  0   -1538964.105   4011912.945   5373911.836
10 0 59276  36102.000000  0   -1069776.515   3403606.960   5882104.008
10 0 59276  36222.000000  0    -593148.342   2727589.974   6286851.460
10 0 59276  36342.000000  0    -118486.963   1995634.307   6581073.237
10 0 59276  36462.000000  0     345055.756   1220640.754   6759627.170
10 0 59276  36582.000000  0     788759.349    416408.280   6819394.477
10 0 59276  36702.000000  0    1204497.722   -402611.377   6759330.059
10 0 59276  36822.000000  0    1584887.184  -1221572.670   6580480.795
10 0 59276  36942.000000  0    1923417.651  -2025504.884   6285968.494
10 0 59276  37062.000000  0    2214564.758  -2799585.826   5880939.691
10 0 59276  37182.000000  0    2453881.506  -3529417.105   5372480.980
10 0 59276  37302.000000  0    2638067.162  -4201295.096   4769500.142
10 0 59276  37422.000000  0    2765012.615  -4802473.093   4082576.005
10 0 59276  37542.000000  0    2833822.190  -5321410.256   3323776.322
10 0 59276  37662.000000  0    2844809.568  -5748001.086   2506447.241
10 0 59276  37782.000000  0    2799468.104  -6073780.431   1644976.472
10 0 59276  37902.000000  0    2700415.588  -6292096.634    754535.619
10 0 59276  38022.000000  0    2551316.855  -6398251.588   -149192.197
10 0 59276  38142.000000  0    2356784.216  -6389603.614  -1050297.419
10 0 59276  38262.000000  0    2122257.481  -6265626.862  -1932934.542
10 0 59276  38382.000000  0    1853867.677  -6027928.529  -2781608.020
10 0 59276  38502.000000  0    1558287.165  -5680223.132  -3581451.821
10 0 59276  38622.000000  0    1242571.606  -5228262.090  -4318491.002
10 0 59276  38742.000000  0     913999.422  -4679726.831  -4979883.811
10 0 59276  38862.000000  0     579910.225  -4044086.613  -5554139.634
10 0 59276  38982.000000  0     247546.537  -3332424.867  -6031310.241
10 0 59276  39102.000000  0     -76097.801  -2557238.028  -6403151.226
10 0 59276  39222.000000  0    -384419.510  -1732211.907  -6663252.760
10 0 59276  39342.000000  0    -671335.656   -871979.851  -6807139.339
10 0 59276  39462.000000  0    -931398.986      8134.041  -6832338.952
10 0 59276  39582.000000  0   -1159897.946    892382.539  -6738419.710
10 0 59276  39702.000000  0   -1352939.921   1764869.413  -6526996.122
10 0 59276  39822.000000  0   -1507516.039   2609827.778  -6201704.106
10 0 59276  39942.000000  0   -1621547.607   3411899.220  -5768146.923
10 0 59276  40062.000000  0   -1693913.311   4156410.795  -5233808.416
10 0 59276  40182.000000  0   -1724456.298   4829644.290  -4607935.696
10 0 59276  40302.000000  0   -1713971.554   5419094.347  -3901389.942
10 0 59276  40422.000000  0   -1664172.540   5913708.229  -3126466.555
10 0 59276  40542.000000  0   -1577637.537   6304102.353  -2296688.342
10 0 59276  40662.000000  0   -1457737.456   6582752.324  -1426573.590
10 0 59276  40782.000000  0   -1308545.618   6744148.969   -531381.519
10 0 59276  40902.000000  0   -1134731.969   6784917.539    373157.846
10 0 59276  41022.000000  0    -941443.412   6703896.896   1271127.519
10 0 59276  41142.000000  0    -734174.020   6502172.016   2146714.886
10 0 59276  41262.000000  0    -518627.995   6183058.468   2984499.279
10 0 59276  41382.000000  0    -300579.413   5752043.638   3769729.800
10 0 59276  41502.000000  0     -85732.948   5216686.983   4488589.780
10 0 59276  41622.000000  0     120412.201   4586478.308   5128446.494
10 0 59276  41742.000000  0     312692.619   3872655.674   5678070.245
10 0 59276  41862.000000  0     486399.982   3087998.432   6127827.607
10 0 59276  41982.000000  0     637387.579   2246589.792   6469846.346
10 0 59276  42102.000000  0     762162.222   1363558.540   6698146.857
10 0 59276  42222.000000  0     857959.966    454803.323   6808740.951
10 0 59276  42342.000000  0     922804.225   -463293.764   6799696.401
10 0 59276  42462.000000  0     955545.345  -1374161.574   6671169.891
10 0 59276  42582.000000  0     955880.993  -2261339.014   6425404.877
10 0 59276  42702.000000  0     924357.068  -3108772.953   6066695.550
10 0 59276  42822.000000  0     862348.479  -3901111.219   5601315.058
10 0 59276  42942.000000  0     772021.354  -4623982.404   5037410.006
10 0 59276  43062.000000  0     656277.654  -5264260.774   4384864.721
99
